CCSDS_OMM_VERS = 2.0
CREATION_DATE  = 
ORIGINATOR     = 

OBJECT_NAME    = SL-4 R/B
OBJECT_ID      = 2014-021B
CENTER_NAME    = EARTH
REF_FRAME      = TEME
TIME_SYSTEM    = UTC
MEAN_ELEMENT_THEORY = SGP/SGP4

EPOCH          = 2025-12-20T00:41:53.128032
MEAN_MOTION    = 15.36835687
ECCENTRICITY   = .0101111
INCLINATION    = 51.6088
RA_OF_ASC_NODE = 5.1640
ARG_OF_PERICENTER = 172.4988
MEAN_ANOMALY   = 187.7535

EPHEMERIS_TYPE = 0
CLASSIFICATION_TYPE = U
NORAD_CAT_ID   = 39679
ELEMENT_SET_NO = 999
REV_AT_EPOCH   = 64401
BSTAR          = .20478E-3
MEAN_MOTION_DOT = .845E-4
MEAN_MOTION_DDOT = 0

CCSDS_OMM_VERS = 2.0
CREATION_DATE  = 
ORIGINATOR     = 

OBJECT_NAME    = ALOS-2
OBJECT_ID      = 2014-029A
CENTER_NAME    = EARTH
REF_FRAME      = TEME
TIME_SYSTEM    = UTC
MEAN_ELEMENT_THEORY = SGP/SGP4

EPOCH          = 2025-12-20T04:23:02.210208
MEAN_MOTION    = 14.79471090
ECCENTRICITY   = .0001414
INCLINATION    = 97.9231
RA_OF_ASC_NODE = 88.9232
ARG_OF_PERICENTER = 99.7868
MEAN_ANOMALY   = 260.3503

EPHEMERIS_TYPE = 0
CLASSIFICATION_TYPE = U
NORAD_CAT_ID   = 39766
ELEMENT_SET_NO = 999
REV_AT_EPOCH   = 62511
BSTAR          = .2959E-3
MEAN_MOTION_DOT = .2159E-4
MEAN_MOTION_DDOT = 0

CCSDS_OMM_VERS = 2.0
CREATION_DATE  = 
ORIGINATOR     = 

OBJECT_NAME    = YAOGAN-29
OBJECT_ID      = 2015-069A
CENTER_NAME    = EARTH
REF_FRAME      = TEME
TIME_SYSTEM    = UTC
MEAN_ELEMENT_THEORY = SGP/SGP4

EPOCH          = 2025-12-20T04:11:26.896704
MEAN_MOTION    = 14.82892016
ECCENTRICITY   = .0000496
INCLINATION    = 98.0211
RA_OF_ASC_NODE = 17.3707
ARG_OF_PERICENTER = 175.9827
MEAN_ANOMALY   = 184.1390

EPHEMERIS_TYPE = 0
CLASSIFICATION_TYPE = U
NORAD_CAT_ID   = 41038
ELEMENT_SET_NO = 999
REV_AT_EPOCH   = 54409
BSTAR          = .99886E-4
MEAN_MOTION_DOT = .755E-5
MEAN_MOTION_DDOT = 0

CCSDS_OMM_VERS = 2.0
CREATION_DATE  = 
ORIGINATOR     = 

OBJECT_NAME    = ASTRO-H (HITOMI)
OBJECT_ID      = 2016-012A
CENTER_NAME    = EARTH
REF_FRAME      = TEME
TIME_SYSTEM    = UTC
MEAN_ELEMENT_THEORY = SGP/SGP4

EPOCH          = 2025-12-19T19:58:23.014848
MEAN_MOTION    = 15.09394006
ECCENTRICITY   = .0009709
INCLINATION    = 30.9977
RA_OF_ASC_NODE = 151.6460
ARG_OF_PERICENTER = 250.0410
MEAN_ANOMALY   = 109.9183

EPHEMERIS_TYPE = 0
CLASSIFICATION_TYPE = U
NORAD_CAT_ID   = 41337
ELEMENT_SET_NO = 999
REV_AT_EPOCH   = 54015
BSTAR          = .14253E-3
MEAN_MOTION_DOT = .243E-4
MEAN_MOTION_DDOT = 0

CCSDS_OMM_VERS = 2.0
CREATION_DATE  = 
ORIGINATOR     = 

OBJECT_NAME    = HXMT (HUIYAN)
OBJECT_ID      = 2017-034A
CENTER_NAME    = EARTH
REF_FRAME      = TEME
TIME_SYSTEM    = UTC
MEAN_ELEMENT_THEORY = SGP/SGP4

EPOCH          = 2025-12-20T04:03:02.604096
MEAN_MOTION    = 15.16314223
ECCENTRICITY   = .0031075
INCLINATION    = 43.0143
RA_OF_ASC_NODE = 98.4001
ARG_OF_PERICENTER = 92.2106
MEAN_ANOMALY   = 268.2300

EPHEMERIS_TYPE = 0
CLASSIFICATION_TYPE = U
NORAD_CAT_ID   = 42758
ELEMENT_SET_NO = 999
REV_AT_EPOCH   = 47046
BSTAR          = .22844E-3
MEAN_MOTION_DOT = .4321E-4
MEAN_MOTION_DDOT = 0

CCSDS_OMM_VERS = 2.0
CREATION_DATE  = 
ORIGINATOR     = 

OBJECT_NAME    = CZ-2C R/B
OBJECT_ID      = 2018-054D
CENTER_NAME    = EARTH
REF_FRAME      = TEME
TIME_SYSTEM    = UTC
MEAN_ELEMENT_THEORY = SGP/SGP4

EPOCH          = 2025-12-19T16:58:48.579744
MEAN_MOTION    = 15.75499724
ECCENTRICITY   = .00151645
INCLINATION    = 35.1322
RA_OF_ASC_NODE = 133.5926
ARG_OF_PERICENTER = 214.6147
MEAN_ANOMALY   = 145.3600

EPHEMERIS_TYPE = 0
CLASSIFICATION_TYPE = U
NORAD_CAT_ID   = 43521
ELEMENT_SET_NO = 999
REV_AT_EPOCH   = 41615
BSTAR          = .54867322E-3
MEAN_MOTION_DOT = .88072E-3
MEAN_MOTION_DDOT = 0

CCSDS_OMM_VERS = 2.0
CREATION_DATE  = 
ORIGINATOR     = 

OBJECT_NAME    = SAOCOM 1A
OBJECT_ID      = 2018-076A
CENTER_NAME    = EARTH
REF_FRAME      = TEME
TIME_SYSTEM    = UTC
MEAN_ELEMENT_THEORY = SGP/SGP4

EPOCH          = 2025-12-19T21:29:30.366240
MEAN_MOTION    = 14.82168152
ECCENTRICITY   = .0001511
INCLINATION    = 97.8839
RA_OF_ASC_NODE = 178.2129
ARG_OF_PERICENTER = 80.1993
MEAN_ANOMALY   = 279.9391

EPHEMERIS_TYPE = 0
CLASSIFICATION_TYPE = U
NORAD_CAT_ID   = 43641
ELEMENT_SET_NO = 999
REV_AT_EPOCH   = 38954
BSTAR          = .13119E-3
MEAN_MOTION_DOT = .993E-5
MEAN_MOTION_DDOT = 0

CCSDS_OMM_VERS = 2.0
CREATION_DATE  = 
ORIGINATOR     = 

OBJECT_NAME    = H-2A R/B
OBJECT_ID      = 2018-084L
CENTER_NAME    = EARTH
REF_FRAME      = TEME
TIME_SYSTEM    = UTC
MEAN_ELEMENT_THEORY = SGP/SGP4

EPOCH          = 2025-12-19T12:37:28.216128
MEAN_MOTION    = 15.37604041
ECCENTRICITY   = .0026889
INCLINATION    = 98.8764
RA_OF_ASC_NODE = 189.0125
ARG_OF_PERICENTER = 302.7309
MEAN_ANOMALY   = 57.1340

EPHEMERIS_TYPE = 0
CLASSIFICATION_TYPE = U
NORAD_CAT_ID   = 43682
ELEMENT_SET_NO = 999
REV_AT_EPOCH   = 39344
BSTAR          = .37146E-3
MEAN_MOTION_DOT = .13775E-3
MEAN_MOTION_DDOT = 0

CCSDS_OMM_VERS = 2.0
CREATION_DATE  = 
ORIGINATOR     = 

OBJECT_NAME    = SAOCOM 1B
OBJECT_ID      = 2020-059A
CENTER_NAME    = EARTH
REF_FRAME      = TEME
TIME_SYSTEM    = UTC
MEAN_ELEMENT_THEORY = SGP/SGP4

EPOCH          = 2025-12-20T04:43:25.216032
MEAN_MOTION    = 14.82142723
ECCENTRICITY   = .0001388
INCLINATION    = 97.8832
RA_OF_ASC_NODE = 177.6098
ARG_OF_PERICENTER = 87.3990
MEAN_ANOMALY   = 272.7382

EPHEMERIS_TYPE = 0
CLASSIFICATION_TYPE = U
NORAD_CAT_ID   = 46265
ELEMENT_SET_NO = 999
REV_AT_EPOCH   = 28697
BSTAR          = .91011E-5
MEAN_MOTION_DOT = .2E-6
MEAN_MOTION_DDOT = 0

CCSDS_OMM_VERS = 2.0
CREATION_DATE  = 
ORIGINATOR     = 

OBJECT_NAME    = CSS (TIANHE)
OBJECT_ID      = 2021-035A
CENTER_NAME    = EARTH
REF_FRAME      = TEME
TIME_SYSTEM    = UTC
MEAN_ELEMENT_THEORY = SGP/SGP4

EPOCH          = 2025-12-20T03:27:25.729920
MEAN_MOTION    = 15.59493882
ECCENTRICITY   = .0007748
INCLINATION    = 41.4684
RA_OF_ASC_NODE = 331.7462
ARG_OF_PERICENTER = 96.2927
MEAN_ANOMALY   = 263.8794

EPHEMERIS_TYPE = 0
CLASSIFICATION_TYPE = U
NORAD_CAT_ID   = 48274
ELEMENT_SET_NO = 999
REV_AT_EPOCH   = 26518
BSTAR          = .22786E-3
MEAN_MOTION_DOT = .18318E-3
MEAN_MOTION_DDOT = 0

CCSDS_OMM_VERS = 2.0
CREATION_DATE  = 
ORIGINATOR     = 

OBJECT_NAME    = COSMOS 2550
OBJECT_ID      = 2021-056A
CENTER_NAME    = EARTH
REF_FRAME      = TEME
TIME_SYSTEM    = UTC
MEAN_ELEMENT_THEORY = SGP/SGP4

EPOCH          = 2025-12-19T21:34:23.418624
MEAN_MOTION    = 15.33838622
ECCENTRICITY   = .0008368
INCLINATION    = 67.1455
RA_OF_ASC_NODE = 282.2793
ARG_OF_PERICENTER = 269.6426
MEAN_ANOMALY   = 90.3770

EPHEMERIS_TYPE = 0
CLASSIFICATION_TYPE = U
NORAD_CAT_ID   = 48865
ELEMENT_SET_NO = 999
REV_AT_EPOCH   = 25122
BSTAR          = .8251269E-5
MEAN_MOTION_DOT = .8E-6
MEAN_MOTION_DDOT = 0

CCSDS_OMM_VERS = 2.0
CREATION_DATE  = 
ORIGINATOR     = 

OBJECT_NAME    = CZ-2C R/B
OBJECT_ID      = 2022-058K
CENTER_NAME    = EARTH
REF_FRAME      = TEME
TIME_SYSTEM    = UTC
MEAN_ELEMENT_THEORY = SGP/SGP4

EPOCH          = 2025-12-20T00:48:27.563040
MEAN_MOTION    = 15.48839578
ECCENTRICITY   = .0045007
INCLINATION    = 50.1915
RA_OF_ASC_NODE = 6.3420
ARG_OF_PERICENTER = 228.6457
MEAN_ANOMALY   = 131.0636

EPHEMERIS_TYPE = 0
CLASSIFICATION_TYPE = U
NORAD_CAT_ID   = 52794
ELEMENT_SET_NO = 999
REV_AT_EPOCH   = 19776
BSTAR          = .32001E-3
MEAN_MOTION_DOT = .17846E-3
MEAN_MOTION_DDOT = 0

