SL-4 R/B                
1 39679U 14021B   25354.02908713  .00008450  00000+0  20478-3 0  9991
2 39679  51.6088   5.1640 0101111 172.4988 187.7535 15.36835687644017
ALOS-2                  
1 39766U 14029A   25354.18266447  .00002159  00000+0  29590-3 0  9998
2 39766  97.9231  88.9232 0001414  99.7868 260.3503 14.79471090625119
YAOGAN-29               
1 41038U 15069A   25354.17461686  .00000755  00000+0  99886-4 0  9995
2 41038  98.0211  17.3707 0000496 175.9827 184.1390 14.82892016544091
ASTRO-H (HITOMI)        
1 41337U 16012A   25353.83221082  .00002430  00000+0  14253-3 0  9998
2 41337  30.9977 151.6460 0009709 250.0410 109.9183 15.09394006540158
HXMT (HUIYAN)           
1 42758U 17034A   25354.16878014  .00004321  00000+0  22844-3 0  9997
2 42758  43.0143  98.4001 0031075  92.2106 268.2300 15.16314223470461
CZ-2C R/B               
1 43521U 18054D   25353.70750671  .00088072  00000+0  54867-3 0  9991
2 43521  35.1322 133.5926 0015164 214.6147 145.3600 15.75499724416153
SAOCOM 1A               
1 43641U 18076A   25353.89549035  .00000993  00000+0  13119-3 0  9999
2 43641  97.8839 178.2129 0001511  80.1993 279.9391 14.82168152389549
H-2A R/B                
1 43682U 18084L   25353.52602102  .00013775  00000+0  37146-3 0  9996
2 43682  98.8764 189.0125 0026889 302.7309  57.1340 15.37604041393444
SAOCOM 1B               
1 46265U 20059A   25354.19681963  .00000020  00000+0  91011-5 0  9999
2 46265  97.8832 177.6098 0001388  87.3990 272.7382 14.82142723286973
CSS (TIANHE)            
1 48274U 21035A   25354.14404780  .00018318  00000+0  22786-3 0  9991
2 48274  41.4684 331.7462 0007748  96.2927 263.8794 15.59493882265186
COSMOS 2550             
1 48865U 21056A   25353.89888216  .00000080  00000+0  82513-5 0  9994
2 48865  67.1455 282.2793 0008368 269.6426  90.3770 15.33838622251223
CZ-2C R/B               
1 52794U 22058K   25354.03365235  .00017846  00000+0  32001-3 0  9994
2 52794  50.1915   6.3420 0045007 228.6457 131.0636 15.48839578197763
